[{"OBJECT_NAME":"ONEWEB-0701","OBJECT_ID":"2024-188P","EPOCH":"2025-10-30T07:42:44.779104","MEAN_MOTION":13.10370292,"ECCENTRICITY":0.00024436,"INCLINATION":87.8777,"RA_OF_ASC_NODE":82.0822,"ARG_OF_PERICENTER":96.1553,"MEAN_ANOMALY":263.9853,"EPHEMERIS_TYPE":0,"CLASSIFICATION_TYPE":"U","NORAD_CAT_ID":61607,"ELEMENT_SET_NO":999,"REV_AT_EPOCH":5320,"BSTAR":6.5493483e-5,"MEAN_MOTION_DOT":3.6e-7,"MEAN_MOTION_DDOT":0},{"OBJECT_NAME":"ONEWEB-0702","OBJECT_ID":"2024-188Q","EPOCH":"2025-10-30T06:57:31.898592","MEAN_MOTION":13.11414044,"ECCENTRICITY":0.00024912,"INCLINATION":87.8788,"RA_OF_ASC_NODE":66.7753,"ARG_OF_PERICENTER":89.8568,"MEAN_ANOMALY":270.2846,"EPHEMERIS_TYPE":0,"CLASSIFICATION_TYPE":"U","NORAD_CAT_ID":61608,"ELEMENT_SET_NO":999,"REV_AT_EPOCH":5435,"BSTAR":-0.0010101139,"MEAN_MOTION_DOT":-3.45e-6,"MEAN_MOTION_DDOT":0},{"OBJECT_NAME":"ONEWEB-0704","OBJECT_ID":"2024-188R","EPOCH":"2025-10-30T07:26:01.447008","MEAN_MOTION":13.10372211,"ECCENTRICITY":0.0002492,"INCLINATION":87.8795,"RA_OF_ASC_NODE":82.0437,"ARG_OF_PERICENTER":85.6833,"MEAN_ANOMALY":274.4579,"EPHEMERIS_TYPE":0,"CLASSIFICATION_TYPE":"U","NORAD_CAT_ID":61609,"ELEMENT_SET_NO":999,"REV_AT_EPOCH":5318,"BSTAR":0.001494458,"MEAN_MOTION_DOT":5.34e-6,"MEAN_MOTION_DDOT":0},{"OBJECT_NAME":"ONEWEB-0705","OBJECT_ID":"2024-188S","EPOCH":"2025-10-30T07:33:11.197152","MEAN_MOTION":13.10372541,"ECCENTRICITY":0.00021749,"INCLINATION":87.8779,"RA_OF_ASC_NODE":82.07,"ARG_OF_PERICENTER":63.7015,"MEAN_ANOMALY":296.4336,"EPHEMERIS_TYPE":0,"CLASSIFICATION_TYPE":"U","NORAD_CAT_ID":61610,"ELEMENT_SET_NO":999,"REV_AT_EPOCH":4535,"BSTAR":0.001289069,"MEAN_MOTION_DOT":4.63e-6,"MEAN_MOTION_DDOT":0},{"OBJECT_NAME":"ONEWEB-0706","OBJECT_ID":"2024-188T","EPOCH":"2025-10-30T03:31:46.549920","MEAN_MOTION":13.10373177,"ECCENTRICITY":0.00020781,"INCLINATION":87.8775,"RA_OF_ASC_NODE":82.1276,"ARG_OF_PERICENTER":82.2413,"MEAN_ANOMALY":277.895,"EPHEMERIS_TYPE":0,"CLASSIFICATION_TYPE":"U","NORAD_CAT_ID":61611,"ELEMENT_SET_NO":999,"REV_AT_EPOCH":5325,"BSTAR":0.0018134668,"MEAN_MOTION_DOT":6.46e-6,"MEAN_MOTION_DDOT":0},{"OBJECT_NAME":"ONEWEB-0707","OBJECT_ID":"2024-188U","EPOCH":"2025-10-30T03:41:20.215680","MEAN_MOTION":13.10371782,"ECCENTRICITY":0.0002086,"INCLINATION":87.8789,"RA_OF_ASC_NODE":82.098,"ARG_OF_PERICENTER":85.6719,"MEAN_ANOMALY":274.4647,"EPHEMERIS_TYPE":0,"CLASSIFICATION_TYPE":"U","NORAD_CAT_ID":61612,"ELEMENT_SET_NO":999,"REV_AT_EPOCH":5319,"BSTAR":0.0018429329,"MEAN_MOTION_DOT":6.56e-6,"MEAN_MOTION_DDOT":0},{"OBJECT_NAME":"ONEWEB-0708","OBJECT_ID":"2024-188V","EPOCH":"2025-10-29T22:37:44.292864","MEAN_MOTION":13.1037614,"ECCENTRICITY":0.00014193,"INCLINATION":87.8773,"RA_OF_ASC_NODE":82.1809,"ARG_OF_PERICENTER":76.5671,"MEAN_ANOMALY":283.5614,"EPHEMERIS_TYPE":0,"CLASSIFICATION_TYPE":"U","NORAD_CAT_ID":61613,"ELEMENT_SET_NO":999,"REV_AT_EPOCH":5314,"BSTAR":-0.00037827032,"MEAN_MOTION_DOT":-1.19e-6,"MEAN_MOTION_DDOT":0}]
